CSS (TIANHE)            
1 48274U 21035A   24060.38957184  .00032307  00000+0  35206-3 0  9996
2 48274  41.4692  27.9626 0006986  61.4879 298.6663 15.62684956162066
